#aV2014  6  7  0  0  0.00000000     288 DD+AD WGS84 FIT  NGA
## 1795 518400.00000000   300.00000000 56815 0.0000000000000
+   31     1  2  3  4  5  6  7  8 10 11 12 13 14 15 16 17 18
+         19 20 21 22 23 24 25 26 27 28 29 30 31 32  0  0  0
+          0  0  0  0  0  0  0  0  0  0  0  0  0  0  0  0  0
+          0  0  0  0  0  0  0  0  0  0  0  0  0  0  0  0  0
+          0  0  0  0  0  0  0  0  0  0  0  0  0  0  0  0  0
++         2  2  2  2  2  2  2  2  2  2  2  2  2  2  2  2  2
++         2  2  2  2  2  2  2  2  2  2  2  2  2  2  0  0  0
++         0  0  0  0  0  0  0  0  0  0  0  0  0  0  0  0  0
++         0  0  0  0  0  0  0  0  0  0  0  0  0  0  0  0  0
++         0  0  0  0  0  0  0  0  0  0  0  0  0  0  0  0  0
%c cc cc ccc ccc cccc cccc cccc cccc ccccc ccccc ccccc ccccc
%c cc cc ccc ccc cccc cccc cccc cccc ccccc ccccc ccccc ccccc
%f  0.0000000  0.000000000  0.00000000000  0.000000000000000
%f  0.0000000  0.000000000  0.00000000000  0.000000000000000
%i    0    0    0    0      0      0      0      0         0
%i    0    0    0    0      0      0      0      0         0
/*      NGA, ST. LOUIS,MO.                                  
/*   EPHEMERIS COMPUTED FROM  1 DAYS OF DATA                
/*   EPOCHA SMOOTHER                                       
/* CCCCCCCCCCCCCCCCCCCCCCCCCCCCCCCCCCCCCCCCCCCCCCCCCCCCCCCCC
*  2014  6  7  6 30  0.00000000
P  1  -4182.586189  17625.310016 -19405.894885     14.581742                    
V  1 -22348.115461  10424.773602  14447.435817      0.010807                    
P  2  22046.701862 -14234.887611   1874.286095    499.706689                    
V  2   3742.282833   2358.484171 -31465.775256      0.021651                    
P  3  -7112.108036  21451.337764  13283.211463    374.824819                    
V  3  -5208.999286 -17378.048889  24423.877550      0.048435                    
P  4  24117.968040  -4208.085593 -10893.470833      7.112323                    
V  4 -10321.296169   8901.276745 -26835.511978      0.002694                    
P  5  14775.815948  -8245.962441  20473.180628   -367.535094                    
V  5  21788.141504  14375.683346  -9753.759136      0.027462                    
P  6  24221.158852  -5970.394803  -9105.469818      7.865680                    
V  6  -8907.075957   7803.088480 -28844.280339     -0.004665                    
P  7  10804.821846  11065.064821  21702.026060    354.880090                    
V  7 -24200.716850  12648.856990   5285.579350      0.042544                    
P  8  18249.994245   5918.544896  18788.179802     14.068218                    
V  8 -21441.002197   8961.723107  17561.971071      0.001012                    
P 10  23869.175636   6732.637342   9730.478118   -128.724296                    
V 10   9267.239260   9176.507871 -27679.229072     -0.015624                    
P 11  -7914.531728  22515.092981 -11938.511002   -495.275508                    
V 11 -13066.858752   7883.430331  24757.218417     -0.030972                    
P 12  -2991.849368 -17686.073929 -19735.293902    209.932263                    
V 12  20991.713727  13159.619590 -14814.235199      0.024906                    
P 13   5103.750372  22950.695747  12056.669401     -7.956761                    
V 13  -4123.324131  15135.825958 -26938.201732     -0.038196                    
P 14 -13864.247534  -7339.670498 -21233.605100    165.889701                    
V 14   3311.789116 -27232.048088   7028.292365     -0.034555                    
P 15   4446.830456 -25217.421217   6399.545314   -183.874272                    
V 15   3747.297379   8255.683161  29958.605422     -0.021693                    
P 16 -14788.643356   6604.389151  21074.345093   -214.456772                    
V 16 -21654.362825 -15665.782287  -9909.899234      0.020319                    
P 17  14168.692391   6575.067457 -21253.446133    -99.352365                    
V 17  -2398.279339  27436.474803   6587.007980     -0.030180                    
P 18 -19531.881862 -17291.787429   6309.853708    323.949809                    
V 18   8097.668264    904.925233  29377.317572      0.023080                    
P 19  -8384.697196  23618.912968   7918.271971   -461.301151                    
V 19  -1592.250403 -10639.483656  29960.150056     -0.021539                    
P 20   5990.906599  18635.496246 -18168.244796    197.403695                    
V 20 -21043.946067  -8968.409289 -16238.186769      0.039871                    
P 21 -15041.395818  -9191.953478  20620.485623   -365.562973                    
V 21  21278.424326 -12702.712242   9726.958844     -0.021982                    
P 22 -24187.108019  -9236.478134  -6087.290599    240.169187                    
V 22  -4931.751857  -7326.372509  29501.026650      0.030897                    
P 23   -140.869063  26306.224833   1154.826109    -26.719559                    
V 23  -3509.006247   1229.347651 -31792.130612     -0.030476                    
P 24   8802.545038 -18503.627834 -16872.119114    -29.677816                    
V 24  19656.640515  -8740.343638  19959.904146     -0.007130                    
P 25 -14886.852947 -18586.564289 -11977.196165     24.677727                    
V 25  13770.898532   6265.437055 -26875.343379      0.002818                    
P 26  12263.400979 -17706.552673  14689.318258     54.585718                    
V 26   -376.927266  20017.263517  23691.884589     -0.121355                    
P 27 -12493.098064  15628.807703  17428.615291    -11.885311                    
V 27  -1129.122499 -22196.930168  19146.122860      0.026276                    
P 28  22536.683363  13815.961274  -2617.576512    360.483250                    
V 28   2198.797805   3903.819941  32012.172245      0.027290                    
P 29  -5947.360275 -23313.459185  11341.812298    537.988958                    
V 29   3253.062636 -14100.374426 -27317.585441      0.027101                    
P 30  19353.814267   4869.041799  17533.405740    -22.492318                    
V 30 -19672.162595  10587.079127  18729.786723     -0.063265                    
P 31 -24679.191174   6689.902313  -7598.712071    334.095018                    
V 31   7855.285798  -6095.556475 -29975.887398     -0.000853                    
P 32  -7289.971664  13793.829607 -21468.171921   -412.288149                    
V 32 -22067.683308 -16253.803741  -2404.474477      0.082494                    
EOF
